$$SOE
2461295.500000000, A.D. 2026-Sep-12 00:00:00.0000, 4.194542261476563E+08, -1.483773337205207E+08, 2.203823325042523E+07,
2461302.500000000, A.D. 2026-Sep-19 00:00:00.0000, 4.219035514850262E+08, -1.386932289087014E+08, 2.190972761609960E+07,
2461309.500000000, A.D. 2026-Sep-26 00:00:00.0000, 4.241199345659927E+08, -1.289325761973829E+08, 2.176912325905105E+07,
2461316.500000000, A.D. 2026-Oct-03 00:00:00.0000, 4.261008241954792E+08, -1.191003639149626E+08, 2.161642979609010E+07,
2461323.500000000, A.D. 2026-Oct-10 00:00:00.0000, 4.278437420727869E+08, -1.092016690058482E+08, 2.145166215757725E+07,
2461330.500000000, A.D. 2026-Oct-17 00:00:00.0000, 4.293462854302754E+08, -9.924165784639606E+07, 2.127484073196195E+07,
2461337.500000000, A.D. 2026-Oct-24 00:00:00.0000, 4.306061297997792E+08, -8.922558711134779E+07, 2.108599150741154E+07,
2461344.500000000, A.D. 2026-Oct-31 00:00:00.0000, 4.316210320113595E+08, -7.915880475154296E+07, 2.088514619655497E+07,
2461351.500000000, A.D. 2026-Nov-07 00:00:00.0000, 4.323888337672595E+08, -6.904675100322513E+07, 2.067234231955954E+07,
2461358.500000000, A.D. 2026-Nov-14 00:00:00.0000, 4.329074659940539E+08, -5.889495853410704E+07, 2.044762329972356E+07,
2461365.500000000, A.D. 2026-Nov-21 00:00:00.0000, 4.331749521650946E+08, -4.870905103564673E+07, 2.021103879394562E+07,
2461372.500000000, A.D. 2026-Nov-28 00:00:00.0000, 4.331894095995977E+08, -3.849474326244706E+07, 1.996264510421443E+07,
2461379.500000000, A.D. 2026-Dec-05 00:00:00.0000, 4.329490523584504E+08, -2.825784316721395E+07, 1.970250528424241E+07,
2461386.500000000, A.D. 2026-Dec-12 00:00:00.0000, 4.324521959013916E+08, -1.800425300958533E+07, 1.943068918011576E+07,
2461393.500000000, A.D. 2026-Dec-19 00:00:00.0000, 4.316972616198144E+08, -7.739969421114038E+06, 1.914727357865617E+07,
2461400.500000000, A.D. 2026-Dec-26 00:00:00.0000, 4.306827811044736E+08, 2.528916716688052E+06, 1.885234240568198E+07,
2461407.500000000, A.D. 2027-Jan-02 00:00:00.0000, 4.294074004248108E+08, 1.279622040175392E+07, 1.854598693321621E+07,
2461414.500000000, A.D. 2027-Jan-09 00:00:00.0000, 4.278698845368329E+08, 2.305566268042788E+07, 1.822830598642477E+07,
2461421.500000000, A.D. 2027-Jan-16 00:00:00.0000, 4.260691218540351E+08, 3.330087087732585E+07, 1.789940614756190E+07,
2461428.500000000, A.D. 2027-Jan-23 00:00:00.0000, 4.240041290258437E+08, 4.352537885946383E+07, 1.755940194919871E+07,
2461435.500000000, A.D. 2027-Jan-30 00:00:00.0000, 4.216740561090208E+08, 5.372262729997435E+07, 1.720841603519162E+07,
2461442.500000000, A.D. 2027-Feb-06 00:00:00.0000, 4.190781925523950E+08, 6.388596429457354E+07, 1.684657927745393E+07,
2461449.500000000, A.D. 2027-Feb-13 00:00:00.0000, 4.162159735279456E+08, 7.400864756567898E+07, 1.647403098957121E+07,
2461456.500000000, A.D. 2027-Feb-20 00:00:00.0000, 4.130869842405924E+08, 8.408384748085500E+07, 1.609091938917579E+07,
2461463.500000000, A.D. 2027-Feb-27 00:00:00.0000, 4.096909636109435E+08, 9.410464768723039E+07, 1.569740191799966E+07,
2461470.500000000, A.D. 2027-Mar-06 00:00:00.0000, 4.060278103422617E+08, 1.040640452988873E+08, 1.529364529868996E+07,
2461477.500000000, A.D. 2027-Mar-13 00:00:00.0000, 4.020975897625788E+08, 1.139549527037260E+08, 1.487982564154965E+07,
2461484.500000000, A.D. 2027-Mar-20 00:00:00.0000, 3.979005403046103E+08, 1.237702001731282E+08, 1.445612863573099E+07,
2461491.500000000, A.D. 2027-Mar-27 00:00:00.0000, 3.934370798168703E+08, 1.335025387433787E+08, 1.402274976060323E+07,
2461498.500000000, A.D. 2027-Apr-03 00:00:00.0000, 3.887078118987485E+08, 1.431446433391775E+08, 1.357989449381495E+07,
2461505.500000000, A.D. 2027-Apr-10 00:00:00.0000, 3.837135323090657E+08, 1.526891161806875E+08, 1.312777851130828E+07,
2461512.500000000, A.D. 2027-Apr-17 00:00:00.0000, 3.784552354569537E+08, 1.621284904785517E+08, 1.266662787506022E+07,
2461519.500000000, A.D. 2027-Apr-24 00:00:00.0000, 3.729341210397781E+08, 1.714552343737801E+08, 1.219667919516712E+07,
2461526.500000000, A.D. 2027-May-01 00:00:00.0000, 3.671516011121691E+08, 1.806617551691095E+08, 1.171817973993613E+07,
2461533.500000000, A.D. 2027-May-08 00:00:00.0000, 3.611093078752668E+08, 1.897404046174089E+08, 1.123138752549265E+07,
2461540.500000000, A.D. 2027-May-15 00:00:00.0000, 3.548091006660340E+08, 1.986834862381353E+08, 1.073657159864342E+07,
2461547.500000000, A.D. 2027-May-22 00:00:00.0000, 3.482530705611486E+08, 2.074832620914882E+08, 1.023401244387561E+07,
2461554.500000000, A.D. 2027-May-29 00:00:00.0000, 3.414435459326444E+08, 2.161319575595769E+08, 9.724002085491881E+06,
2461561.500000000, A.D. 2027-Jun-05 00:00:00.0000, 3.343830998138663E+08, 2.246217672785230E+08, 9.206844057565376E+06,
2461568.500000000, A.D. 2027-Jun-12 00:00:00.0000, 3.270745570363392E+08, 2.329448626654134E+08, 8.682853459103405E+06,
2461575.500000000, A.D. 2027-Jun-19 00:00:00.0000, 3.195210007720822E+08, 2.410934001172935E+08, 8.152357046470881E+06,
2461582.500000000, A.D. 2027-Jun-26 00:00:00.0000, 3.117257787237255E+08, 2.490595296334627E+08, 7.615693314375669E+06,
2461589.500000000, A.D. 2027-Jul-03 00:00:00.0000, 3.036925090566483E+08, 2.568354038828448E+08, 7.073212552634865E+06,
2461596.500000000, A.D. 2027-Jul-10 00:00:00.0000, 2.954250860728332E+08, 2.644131877380013E+08, 6.525276874954984E+06,
2461603.500000000, A.D. 2027-Jul-17 00:00:00.0000, 2.869276856257566E+08, 2.717850682467484E+08, 5.972260212030113E+06,
2461610.500000000, A.D. 2027-Jul-24 00:00:00.0000, 2.782047703939704E+08, 2.789432649843650E+08, 5.414548247982100E+06,
2461617.500000000, A.D. 2027-Jul-31 00:00:00.0000, 2.692610953836601E+08, 2.858800410237358E+08, 4.852538279795781E+06,
2461624.500000000, A.D. 2027-Aug-07 00:00:00.0000, 2.601017134149386E+08, 2.925877156711503E+08, 4.286639109945565E+06,
2461631.500000000, A.D. 2027-Aug-14 00:00:00.0000, 2.507319782387964E+08, 2.990586787054946E+08, 3.717271160386905E+06,
2461638.500000000, A.D. 2027-Aug-21 00:00:00.0000, 2.411575458502401E+08, 3.052854027514611E+08, 3.144866474876568E+06,
2461645.500000000, A.D. 2027-Aug-28 00:00:00.0000, 2.313843773818260E+08, 3.112604549811078E+08, 2.569868391217574E+06,
2461652.500000000, A.D. 2027-Sep-04 00:00:00.0000, 2.214187423449003E+08, 3.169765106271061E+08, 1.992731193801671E+06,
2461659.500000000, A.D. 2027-Sep-11 00:00:00.0000, 2.112672207682923E+08, 3.224263676242674E+08, 1.413919818370372E+06,
2461666.500000000, A.D. 2027-Sep-18 00:00:00.0000, 2.009367043136096E+08, 3.276029617040888E+08, 8.339095417945087E+05,
2461673.500000000, A.D. 2027-Sep-25 00:00:00.0000, 1.904343965426386E+08, 3.324993818347915E+08, 2.531856277263016E+05,
2461680.500000000, A.D. 2027-Oct-02 00:00:00.0000, 1.797678123590257E+08, 3.371088859992166E+08, -3.277570781996101E+05,
2461687.500000000, A.D. 2027-Oct-09 00:00:00.0000, 1.689447765946586E+08, 3.414249172654898E+08, -9.084146075542420E+05,
2461694.500000000, A.D. 2027-Oct-16 00:00:00.0000, 1.579734217531774E+08, 3.454411200496009E+08, -1.488274394233257E+06,
2461701.500000000, A.D. 2027-Oct-23 00:00:00.0000, 1.468621851216873E+08, 3.491513565132670E+08, -2.066815890792757E+06,
2461708.500000000, A.D. 2027-Oct-30 00:00:00.0000, 1.356198055801447E+08, 3.525497236521548E+08, -2.643511261319190E+06,
2461715.500000000, A.D. 2027-Nov-06 00:00:00.0000, 1.242553189049668E+08, 3.556305721397128E+08, -3.217825952797800E+06,
2461722.500000000, A.D. 2027-Nov-13 00:00:00.0000, 1.127780495412747E+08, 3.583885247761945E+08, -3.789219132547334E+06,
2461729.500000000, A.D. 2027-Nov-20 00:00:00.0000, 1.011976017069329E+08, 3.608184922849191E+08, -4.357144435525179E+06,
2461736.500000000, A.D. 2027-Nov-27 00:00:00.0000, 8.952385142056224E+07, 3.629156893471434E+08, -4.921050927365467E+06,
2461743.500000000, A.D. 2027-Dec-04 00:00:00.0000, 7.776693741007052E+07, 3.646756517028966E+08, -5.480384022239193E+06,
2461750.500000000, A.D. 2027-Dec-11 00:00:00.0000, 6.593725033400232E+07, 3.660942532613608E+08, -6.034586382206276E+06,
2461757.500000000, A.D. 2027-Dec-18 00:00:00.0000, 5.404542058007038E+07, 3.671677227865662E+08, -6.583098848873898E+06,
2461764.500000000, A.D. 2027-Dec-25 00:00:00.0000, 4.210230478928044E+07, 3.678926600582538E+08, -7.125361418937072E+06,
2461771.500000000, A.D. 2028-Jan-01 00:00:00.0000, 3.011897115083634E+07, 3.682660514229492E+08, -7.660814263219953E+06,
$$EOE